start=new Date('2022-03-20T00:00:00.000Z').valueOf();
sats=[{"GP_ID":"199188218","SEMIMAJOR_AXIS":"6904.773","OBJECT_ID":"2022-001AH","RA_OF_ASC_NODE":"211.9529","INCLINATION":"53.2171","REV_AT_EPOCH":"365","ARG_OF_PERICENTER":"50.3187","PERIAPSIS":"525.618","EPOCH":"2022-03-19T22:00:01.999584","MEAN_MOTION_DOT":"-0.00666278","MEAN_ANOMALY":"312.7347","CENTER_NAME":"EARTH","TIME_SYSTEM":"UTC","BSTAR":"-0.03969300000000","RCS_SIZE":"LARGE","FILE":"3366144","OBJECT_TYPE":"PAYLOAD","PERIOD":"95.166","OBJECT_NAME":"STARLINK-3331","CLASSIFICATION_TYPE":"U","DECAY_DATE":null,"MEAN_MOTION_DDOT":"0.0000000000000","COUNTRY_CODE":"US","MEAN_ELEMENT_THEORY":"SGP4","TLE_LINE2":"2 50834  53.2171 211.9529 0001477  50.3187 312.7347 15.13138399  3657","LAUNCH_DATE":"2022-01-06","MEAN_MOTION":"15.13138399","ELEMENT_SET_NO":"999","APOAPSIS":"527.658","NORAD_CAT_ID":"50834","TLE_LINE1":"1 50834U 22001AH  22078.91668981 -.00666278  00000-0 -39693-1 0  9990","ECCENTRICITY":"0.00014770","REF_FRAME":"TEME","SITE":"AFETR","EPHEMERIS_TYPE":"0"},{"GP_ID":"199186992","OBJECT_ID":"2022-001AJ","SEMIMAJOR_AXIS":"6904.064","RA_OF_ASC_NODE":"211.9544","REV_AT_EPOCH":"365","INCLINATION":"53.2171","MEAN_MOTION_DOT":"-0.00664745","ARG_OF_PERICENTER":"46.3243","EPOCH":"2022-03-19T22:00:01.999584","PERIAPSIS":"524.862","MEAN_ANOMALY":"354.0731","TIME_SYSTEM":"UTC","CENTER_NAME":"EARTH","BSTAR":"-0.03933600000000","RCS_SIZE":"LARGE","FILE":"3366144","OBJECT_TYPE":"PAYLOAD","OBJECT_NAME":"STARLINK-3310","CLASSIFICATION_TYPE":"U","MEAN_MOTION_DDOT":"0.0000000000000","DECAY_DATE":null,"COUNTRY_CODE":"US","PERIOD":"95.152","MEAN_MOTION":"15.13371470","LAUNCH_DATE":"2022-01-06","APOAPSIS":"526.996","ELEMENT_SET_NO":"999","MEAN_ELEMENT_THEORY":"SGP4","TLE_LINE2":"2 50835  53.2171 211.9544 0001546  46.3243 354.0731 15.13371470  3655","NORAD_CAT_ID":"50835","TLE_LINE1":"1 50835U 22001AJ  22078.91668981 -.00664745  00000-0 -39336-1 0  9992","REF_FRAME":"TEME","ECCENTRICITY":"0.00015460","EPHEMERIS_TYPE":"0","SITE":"AFETR"},{"MEAN_ANOMALY":"268.3053","MEAN_MOTION_DOT":"-0.00667829","ARG_OF_PERICENTER":"46.5615","EPOCH":"2022-03-19T22:00:01.999584","PERIAPSIS":"519.269","REV_AT_EPOCH":"365","INCLINATION":"53.2172","RA_OF_ASC_NODE":"211.9570","OBJECT_ID":"2022-001AK","SEMIMAJOR_AXIS":"6898.519","GP_ID":"199187743","EPHEMERIS_TYPE":"0","SITE":"AFETR","REF_FRAME":"TEME","ECCENTRICITY":"0.00016160","NORAD_CAT_ID":"50836","TLE_LINE1":"1 50836U 22001AK  22078.91668981 -.00667829  00000-0 -37538-1 0  9991","MEAN_MOTION":"15.15196523","LAUNCH_DATE":"2022-01-06","ELEMENT_SET_NO":"999","APOAPSIS":"521.499","TLE_LINE2":"2 50836  53.2172 211.9570 0001616  46.5615 268.3053 15.15196523  3659","MEAN_ELEMENT_THEORY":"SGP4","CLASSIFICATION_TYPE":"U","OBJECT_NAME":"STARLINK-3330","DECAY_DATE":null,"MEAN_MOTION_DDOT":"0.0000000000000","COUNTRY_CODE":"US","PERIOD":"95.037","RCS_SIZE":"LARGE","FILE":"3366144","OBJECT_TYPE":"PAYLOAD","BSTAR":"-0.03753800000000","TIME_SYSTEM":"UTC","CENTER_NAME":"EARTH"},{"INCLINATION":"53.2172","REV_AT_EPOCH":"369","RA_OF_ASC_NODE":"205.2811","MEAN_ANOMALY":"245.9092","ARG_OF_PERICENTER":"23.6560","EPOCH":"2022-03-19T22:00:01.999584","PERIAPSIS":"422.978","MEAN_MOTION_DOT":"-0.00722143","SEMIMAJOR_AXIS":"6802.443","OBJECT_ID":"2022-001AL","GP_ID":"199188494","NORAD_CAT_ID":"50837","TLE_LINE1":"1 50837U 22001AL  22078.91668981 -.00722143  00000-0 -14992-1 0  9992","TLE_LINE2":"2 50837  53.2172 205.2811 0001956  23.6560 245.9092 15.47409958  3698","MEAN_ELEMENT_THEORY":"SGP4","MEAN_MOTION":"15.47409958","LAUNCH_DATE":"2022-01-06","ELEMENT_SET_NO":"999","APOAPSIS":"425.639","SITE":"AFETR","EPHEMERIS_TYPE":"0","ECCENTRICITY":"0.00019560","REF_FRAME":"TEME","BSTAR":"-0.01499200000000","CENTER_NAME":"EARTH","TIME_SYSTEM":"UTC","PERIOD":"93.059","CLASSIFICATION_TYPE":"U","OBJECT_NAME":"STARLINK-3318","COUNTRY_CODE":"US","DECAY_DATE":null,"MEAN_MOTION_DDOT":"0.0000000000000","OBJECT_TYPE":"PAYLOAD","FILE":"3366144","RCS_SIZE":"LARGE"},{"TIME_SYSTEM":"UTC","CENTER_NAME":"EARTH","BSTAR":"-0.03844900000000","RCS_SIZE":"LARGE","FILE":"3366144","OBJECT_TYPE":"PAYLOAD","CLASSIFICATION_TYPE":"U","OBJECT_NAME":"STARLINK-3322","DECAY_DATE":null,"MEAN_MOTION_DDOT":"0.0000000000000","COUNTRY_CODE":"US","PERIOD":"95.108","LAUNCH_DATE":"2022-01-06","MEAN_MOTION":"15.14071994","APOAPSIS":"524.971","ELEMENT_SET_NO":"999","TLE_LINE2":"2 50838  53.2172 211.9568 0001698  46.6722 104.9137 15.14071994  3660","MEAN_ELEMENT_THEORY":"SGP4","NORAD_CAT_ID":"50838","TLE_LINE1":"1 50838U 22001AM  22078.91668981 -.00662880  00000-0 -38449-1 0  9997","REF_FRAME":"TEME","ECCENTRICITY":"0.00016980","EPHEMERIS_TYPE":"0","SITE":"AFETR","GP_ID":"199188719","OBJECT_ID":"2022-001AM","SEMIMAJOR_AXIS":"6901.934","RA_OF_ASC_NODE":"211.9568","REV_AT_EPOCH":"366","INCLINATION":"53.2172","MEAN_MOTION_DOT":"-0.00662880","ARG_OF_PERICENTER":"46.6722","PERIAPSIS":"522.627","EPOCH":"2022-03-19T22:00:01.999584","MEAN_ANOMALY":"104.9137"},{"GP_ID":"199187493","SEMIMAJOR_AXIS":"6903.001","OBJECT_ID":"2022-001AN","RA_OF_ASC_NODE":"211.9560","INCLINATION":"53.2171","REV_AT_EPOCH":"365","EPOCH":"2022-03-19T22:00:01.999584","PERIAPSIS":"523.721","ARG_OF_PERICENTER":"44.6237","MEAN_MOTION_DOT":"-0.00662728","MEAN_ANOMALY":"51.5262","CENTER_NAME":"EARTH","TIME_SYSTEM":"UTC","BSTAR":"-0.03882300000000","FILE":"3366144","RCS_SIZE":"LARGE","OBJECT_TYPE":"PAYLOAD","PERIOD":"95.130","DECAY_DATE":null,"MEAN_MOTION_DDOT":"0.0000000000000","COUNTRY_CODE":"US","CLASSIFICATION_TYPE":"U","OBJECT_NAME":"STARLINK-3320","TLE_LINE2":"2 50839  53.2171 211.9560 0001659  44.6237  51.5262 15.13721169  3658","MEAN_ELEMENT_THEORY":"SGP4","APOAPSIS":"526.011","ELEMENT_SET_NO":"999","LAUNCH_DATE":"2022-01-06","MEAN_MOTION":"15.13721169","TLE_LINE1":"1 50839U 22001AN  22078.91668981 -.00662728  00000-0 -38823-1 0  9995","NORAD_CAT_ID":"50839","ECCENTRICITY":"0.00016590","REF_FRAME":"TEME","SITE":"AFETR","EPHEMERIS_TYPE":"0"},{"PERIOD":"95.122","OBJECT_NAME":"STARLINK-3295","CLASSIFICATION_TYPE":"U","DECAY_DATE":null,"COUNTRY_CODE":"US","MEAN_MOTION_DDOT":"0.0000000000000","FILE":"3366144","RCS_SIZE":"LARGE","OBJECT_TYPE":"PAYLOAD","BSTAR":"-0.03867500000000","CENTER_NAME":"EARTH","TIME_SYSTEM":"UTC","SITE":"AFETR","EPHEMERIS_TYPE":"0","ECCENTRICITY":"0.00018940","REF_FRAME":"TEME","NORAD_CAT_ID":"50840","TLE_LINE1":"1 50840U 22001AP  22078.91668981 -.00662426  00000-0 -38675-1 0  9997","TLE_LINE2":"2 50840  53.2171 211.9563 0001894  36.3071  78.3566 15.13837908  3651","MEAN_ELEMENT_THEORY":"SGP4","LAUNCH_DATE":"2022-01-06","MEAN_MOTION":"15.13837908","APOAPSIS":"525.818","ELEMENT_SET_NO":"999","SEMIMAJOR_AXIS":"6902.646","OBJECT_ID":"2022-001AP","GP_ID":"199188244","MEAN_ANOMALY":"78.3566","ARG_OF_PERICENTER":"36.3071","PERIAPSIS":"523.203","EPOCH":"2022-03-19T22:00:01.999584","MEAN_MOTION_DOT":"-0.00662426","INCLINATION":"53.2171","REV_AT_EPOCH":"365","RA_OF_ASC_NODE":"211.9563"},{"REF_FRAME":"TEME","ECCENTRICITY":"0.00015600","EPHEMERIS_TYPE":"0","SITE":"AFETR","MEAN_MOTION":"15.13488009","LAUNCH_DATE":"2022-01-06","ELEMENT_SET_NO":"999","APOAPSIS":"526.652","MEAN_ELEMENT_THEORY":"SGP4","TLE_LINE2":"2 50841  53.2171 211.9550 0001560  46.5410  12.4757 15.13488009  3653","NORAD_CAT_ID":"50841","TLE_LINE1":"1 50841U 22001AQ  22078.91668981 -.00663984  00000-0 -39159-1 0  9996","OBJECT_TYPE":"PAYLOAD","FILE":"3366144","RCS_SIZE":"LARGE","OBJECT_NAME":"STARLINK-3300","CLASSIFICATION_TYPE":"U","DECAY_DATE":null,"COUNTRY_CODE":"US","MEAN_MOTION_DDOT":"0.0000000000000","PERIOD":"95.144","TIME_SYSTEM":"UTC","CENTER_NAME":"EARTH","BSTAR":"-0.03915900000000","MEAN_MOTION_DOT":"-0.00663984","ARG_OF_PERICENTER":"46.5410","EPOCH":"2022-03-19T22:00:01.999584","PERIAPSIS":"524.498","MEAN_ANOMALY":"12.4757","RA_OF_ASC_NODE":"211.9550","REV_AT_EPOCH":"365","INCLINATION":"53.2171","GP_ID":"199187994","OBJECT_ID":"2022-001AQ","SEMIMAJOR_AXIS":"6903.710"},{"NORAD_CAT_ID":"50842","TLE_LINE1":"1 50842U 22001AR  22078.91668981 -.00662541  00000-0 -38556-1 0  9995","TLE_LINE2":"2 50842  53.2172 211.9566 0001622  49.7819  83.3605 15.13954904  3661","MEAN_ELEMENT_THEORY":"SGP4","MEAN_MOTION":"15.13954904","LAUNCH_DATE":"2022-01-06","APOAPSIS":"525.275","ELEMENT_SET_NO":"999","SITE":"AFETR","EPHEMERIS_TYPE":"0","ECCENTRICITY":"0.00016220","REF_FRAME":"TEME","BSTAR":"-0.03855600000000","CENTER_NAME":"EARTH","TIME_SYSTEM":"UTC","PERIOD":"95.115","CLASSIFICATION_TYPE":"U","OBJECT_NAME":"STARLINK-3302","DECAY_DATE":null,"COUNTRY_CODE":"US","MEAN_MOTION_DDOT":"0.0000000000000","FILE":"3366144","RCS_SIZE":"LARGE","OBJECT_TYPE":"PAYLOAD","INCLINATION":"53.2172","REV_AT_EPOCH":"366","RA_OF_ASC_NODE":"211.9566","MEAN_ANOMALY":"83.3605","ARG_OF_PERICENTER":"49.7819","EPOCH":"2022-03-19T22:00:01.999584","PERIAPSIS":"523.036","MEAN_MOTION_DOT":"-0.00662541","SEMIMAJOR_AXIS":"6902.290","OBJECT_ID":"2022-001AR","GP_ID":"199188219"},{"OBJECT_ID":"2022-001AS","SEMIMAJOR_AXIS":"6904.418","GP_ID":"199186993","REV_AT_EPOCH":"365","INCLINATION":"53.2171","RA_OF_ASC_NODE":"211.9537","MEAN_ANOMALY":"335.9916","MEAN_MOTION_DOT":"-0.00665657","ARG_OF_PERICENTER":"45.7513","PERIAPSIS":"525.202","EPOCH":"2022-03-19T22:00:01.999584","BSTAR":"-0.03952300000000","TIME_SYSTEM":"UTC","CENTER_NAME":"EARTH","CLASSIFICATION_TYPE":"U","OBJECT_NAME":"STARLINK-3325","COUNTRY_CODE":"US","DECAY_DATE":null,"MEAN_MOTION_DDOT":"0.0000000000000","PERIOD":"95.159","OBJECT_TYPE":"PAYLOAD","FILE":"3366144","RCS_SIZE":"LARGE","NORAD_CAT_ID":"50843","TLE_LINE1":"1 50843U 22001AS  22078.91668981 -.00665657  00000-0 -39523-1 0  9992","MEAN_MOTION":"15.13255032","LAUNCH_DATE":"2022-01-06","APOAPSIS":"527.364","ELEMENT_SET_NO":"999","MEAN_ELEMENT_THEORY":"SGP4","TLE_LINE2":"2 50843  53.2171 211.9537 0001566  45.7513 335.9916 15.13255032  3659","EPHEMERIS_TYPE":"0","SITE":"AFETR","REF_FRAME":"TEME","ECCENTRICITY":"0.00015660"}];
